NORAD_CAT_ID,OBJECT_NAME,OBJECT_TYPE,EPOCH,MEAN_MOTION,ECCENTRICITY,INCLINATION,RA_OF_ASC_NODE,ARG_OF_PERICENTER,MEAN_ANOMALY,BSTAR,MEAN_MOTION_DOT,MEAN_MOTION_DDOT,TLE_LINE0,TLE_LINE1,TLE_LINE2,SEMIMAJOR_AXIS,PERIOD,APOGEE,PERIGEE,DECAYED
52356.0,STARLINK-3801,PAYLOAD,2022-11-07 14:04:32,15.08833775,0.0002348,53.2187,267.3985,31.1878,328.9253,0.0002285,3.35e-05,0.0,0 STARLINK-3801,1 52356U 22045AB  22311.58648529  .00003350  00000-0  22850-3 0  9991,2 52356  53.2187 267.3985 0002348  31.1878 328.9253 15.08833775 31894,6917.899,95.438,541.389,538.14,0.0
52356.0,STARLINK-3801,PAYLOAD,2022-11-08 07:33:45,15.08861721,0.0002367,53.2187,264.128,35.7406,324.3745,0.00075632,0.00011776,0.0,0 STARLINK-3801,1 52356U 22045AB  22312.31511391  .00011776  00000-0  75632-3 0  9996,2 52356  53.2187 264.1280 0002367  35.7406 324.3745 15.08861721 32007,6917.814,95.436,541.316,538.0419999999998,0.0
52356.0,STARLINK-3801,PAYLOAD,2022-11-08 13:55:17,15.08875207,0.0002337,53.2187,262.939,34.4535,325.6609,0.0012272,0.00019316,0.0,0 STARLINK-3801,1 52356U 22045AB  22312.58006774  .00019316  00000-0  12272-2 0  9997,2 52356  53.2187 262.9390 0002337  34.4535 325.6609 15.08875207 32042,6917.773,95.435,541.254,538.021,0.0
52356.0,STARLINK-3801,PAYLOAD,2022-11-09 13:46:04,15.08833507,0.0002559,53.219,258.4778,37.273,322.8439,-0.00096893,-0.00015674,0.0,0 STARLINK-3801,1 52356U 22045AB  22313.57365926 -.00015674  00000-0 -96893-3 0  9991,2 52356  53.2190 258.4778 0002559  37.2730 322.8439 15.08833507 32193,6917.9,95.438,541.536,537.995,0.0
52356.0,STARLINK-3801,PAYLOAD,2022-11-09 20:07:36,15.08831996,0.0001988,53.2181,257.2888,24.8481,335.2606,-0.00057632,-9.447e-05,0.0,0 STARLINK-3801,1 52356U 22045AB  22313.83862051 -.00009447  00000-0 -57632-3 0  9990,2 52356  53.2181 257.2888 0001988  24.8481 335.2606 15.08831996 32231,6917.905,95.438,541.145,538.395,0.0
52356.0,STARLINK-3801,PAYLOAD,2022-11-10 04:04:32,15.08830737,0.0002374,53.2185,255.8028,32.7814,327.3325,-0.00048333,-7.971e-05,0.0,0 STARLINK-3801,1 52356U 22045AB  22314.16982285 -.00007971  00000-0 -48333-3 0  9997,2 52356  53.2185 255.8028 0002374  32.7814 327.3325 15.08830737 32280,6917.909000000002,95.438,541.4159999999998,538.131,0.0
52356.0,STARLINK-3801,PAYLOAD,2022-11-10 13:36:51,15.08831,0.0002413,53.2186,254.0187,33.1903,326.9240000000001,-0.00024469,-4.18e-05,0.0,0 STARLINK-3801,1 52356U 22045AB  22314.56726764 -.00004180  00000-0 -24469-3 0  9992,2 52356  53.2186 254.0187 0002413  33.1903 326.9240 15.08831000 32348,6917.908,95.438,541.442,538.104,0.0
52356.0,STARLINK-3801,PAYLOAD,2022-11-11 05:30:43,15.08834364,0.0002309,53.2186,251.0448,31.0766,329.0362,0.00065862,0.00010208,0.0,0 STARLINK-3801,1 52356U 22045AB  22315.22967532  .00010208  00000-0  65862-3 0  9994,2 52356  53.2186 251.0448 0002309  31.0766 329.0362 15.08834364 32449,6917.898,95.438,541.36,538.165,0.0
52356.0,STARLINK-3801,PAYLOAD,2022-11-12 03:46:08,15.08832056,0.0002253,53.2188,246.881,31.5849,328.5278,0.0002387,3.512e-05,0.0,0 STARLINK-3801,1 52356U 22045AB  22316.15704180  .00003512  00000-0  23870-3 0  9998,2 52356  53.2188 246.8810 0002253  31.5849 328.5278 15.08832056 32582,6917.905,95.438,541.328,538.211,0.0
52356.0,STARLINK-3801,PAYLOAD,2022-11-12 06:56:54,15.08835292,0.0002295,53.2191,246.2869,31.6306,328.4824,0.0002765,4.114e-05,0.0,0 STARLINK-3801,1 52356U 22045AB  22316.28952142  .00004114  00000-0  27650-3 0  9994,2 52356  53.2191 246.2869 0002295  31.6306 328.4824 15.08835292 32603,6917.895,95.438,541.347,538.172,0.0
52356.0,STARLINK-3801,PAYLOAD,2022-11-13 02:01:32,15.08844413,0.0002382,53.2188,242.7195,30.4612,329.6518,0.00023367,3.433e-05,0.0,0 STARLINK-3801,1 52356U 22045AB  22317.08439839  .00003433  00000-0  23367-3 0  9990,2 52356  53.2188 242.7195 0002382  30.4612 329.6518 15.08844413 32727,6917.8669999999975,95.437,541.38,538.0840000000002,0.0
52356.0,STARLINK-3801,PAYLOAD,2022-11-13 19:30:47,15.08829028,0.0002413,53.2188,239.4492,32.2653,327.8486,-4.1215e-05,-9.44e-06,0.0,0 STARLINK-3801,1 52356U 22045AB  22317.81304699 -.00000944  00000-0 -41215-4 0  9995,2 52356  53.2188 239.4492 0002413  32.2653 327.8486 15.08829028 32831,6917.9140000000025,95.438,541.448,538.11,0.0
52356.0,STARLINK-3801,PAYLOAD,2022-11-14 11:24:38,15.08839573,0.000234,53.2188,236.4759,28.8999,331.2122,0.00014116,1.959e-05,0.0,0 STARLINK-3801,1 52356U 22045AB  22318.47544663  .00001959  00000-0  14116-3 0  9999,2 52356  53.2188 236.4759 0002340  28.8999 331.2122 15.08839573 32930,6917.882,95.438,541.365,538.128,0.0
52356.0,STARLINK-3801,PAYLOAD,2022-11-14 22:32:20,15.08844025,0.0002339,53.2189,234.3934,31.6706,328.4426,0.00020773,3.02e-05,0.0,0 STARLINK-3801,1 52356U 22045AB  22318.93912451  .00003020  00000-0  20773-3 0  9991,2 52356  53.2189 234.3934 0002339  31.6706 328.4426 15.08844025 33001,6917.868,95.437,541.351,538.115,0.0
52356.0,STARLINK-3801,PAYLOAD,2022-11-15 06:29:16,15.08841021,0.0002411,53.2187,232.9071,33.0437,327.0706,0.0003017,4.517e-05,0.0,0 STARLINK-3801,1 52356U 22045AB  22319.27032765  .00004517  00000-0  30170-3 0  9994,2 52356  53.2187 232.9071 0002411  33.0437 327.0706 15.08841021 33057,6917.877,95.437,541.41,538.0740000000002,0.0
52356.0,STARLINK-3801,PAYLOAD,2022-11-15 20:47:44,15.08839776,0.0002423,53.2183,230.2312,32.0107,328.1032,8.262100000000001e-05,1.027e-05,0.0,0 STARLINK-3801,1 52356U 22045AB  22319.86648750  .00001027  00000-0  82621-4 0  9998,2 52356  53.2183 230.2312 0002423  32.0107 328.1032 15.08839776 33146,6917.880999999999,95.438,541.422,538.07,0.0
52356.0,STARLINK-3801,PAYLOAD,2022-11-16 11:06:12,15.0883844,0.0002466,53.2184,227.5552,33.3517,326.763,2.8444e-05,1.64e-06,0.0,0 STARLINK-3801,1 52356U 22045AB  22320.46264842  .00000164  00000-0  28444-4 0  9996,2 52356  53.2184 227.5552 0002466  33.3517 326.7630 15.08838440 33233,6917.885,95.438,541.456,538.044,0.0
52356.0,STARLINK-3801,PAYLOAD,2022-11-17 03:00:04,15.08841257,0.0002459,53.2187,224.5819,33.2364,326.8783,0.00013149,1.805e-05,0.0,0 STARLINK-3801,1 52356U 22045AB  22321.12504858  .00001805  00000-0  13149-3 0  9992,2 52356  53.2187 224.5819 0002459  33.2364 326.8783 15.08841257 33331,6917.877,95.437,541.443,538.04,0.0
52356.0,STARLINK-3801,PAYLOAD,2022-11-17 06:10:50,15.08834462,0.0002576,53.2188,223.9871,33.689,326.4266,3.1929e-05,2.2e-06,0.0,0 STARLINK-3801,1 52356U 22045AB  22321.25753321  .00000220  00000-0  31929-4 0  9994,2 52356  53.2188 223.9871 0002576  33.6890 326.4266 15.08834462 33355,6917.897,95.438,541.544,537.98,0.0
52356.0,STARLINK-3801,PAYLOAD,2022-11-17 10:57:00,15.08831879,0.000248,53.2188,223.0951,33.3271,326.7877,0.00020109,2.913e-05,0.0,0 STARLINK-3801,1 52356U 22045AB  22321.45625584  .00002913  00000-0  20109-3 0  9993,2 52356  53.2188 223.0951 0002480  33.3271 326.7877 15.08831879 33382,6917.905,95.438,541.486,538.055,0.0
52356.0,STARLINK-3801,PAYLOAD,2022-11-18 01:15:28,15.08845289,0.000244,53.2184,220.4191,33.8208,326.2940000000001,0.00022974,3.37e-05,0.0,0 STARLINK-3801,1 52356U 22045AB  22322.05240914  .00003370  00000-0  22974-3 0  9990,2 52356  53.2184 220.4191 0002440  33.8208 326.2940 15.08845289 33472,6917.864000000001,95.437,541.4169999999998,538.0409999999998,0.0
52356.0,STARLINK-3801,PAYLOAD,2022-11-18 02:50:51,15.08847209,0.000245,53.2184,220.1216,32.4542,327.66,0.00026787,3.978e-05,0.0,0 STARLINK-3801,1 52356U 22045AB  22322.11864762  .00003978  00000-0  26787-3 0  9990,2 52356  53.2184 220.1216 0002450  32.4542 327.6600 15.08847209 33487,6917.858,95.437,541.418,538.028,0.0
52356.0,STARLINK-3801,PAYLOAD,2022-11-19 04:17:01,15.08838639,0.000241,53.2184,215.3643,33.8205,326.2940000000001,5.680399999999999e-05,6.16e-06,0.0,0 STARLINK-3801,1 52356U 22045AB  22323.17849177  .00000616  00000-0  56804-4 0  9990,2 52356  53.2184 215.3643 0002410  33.8205 326.2940 15.08838639 33641,6917.885,95.438,541.4169999999998,538.082,0.0
52356.0,STARLINK-3801,PAYLOAD,2022-11-19 10:38:34,15.08838142,0.000244,53.2185,214.1748,34.4503,325.6647,5.5018e-05,5.87e-06,0.0,0 STARLINK-3801,1 52356U 22045AB  22323.44345262  .00000587  00000-0  55018-4 0  9999,2 52356  53.2185 214.1748 0002440  34.4503 325.6647 15.08838142 33686,6917.886,95.438,541.439,538.063,0.0
52356.0,STARLINK-3801,PAYLOAD,2022-11-19 20:10:52,15.08843366,0.0002513,53.2186,212.3907,34.9753,325.1403,0.00013486,1.859e-05,0.0,0 STARLINK-3801,1 52356U 22045AB  22323.84089018  .00001859  00000-0  13486-3 0  9992,2 52356  53.2186 212.3907 0002513  34.9753 325.1403 15.08843366 33743,6917.87,95.437,541.474,537.997,0.0
52356.0,STARLINK-3801,PAYLOAD,2022-11-20 04:07:48,15.08851798,0.0002507,53.2186,210.9042,36.1808,323.9353,0.00018149,2.602e-05,0.0,0 STARLINK-3801,1 52356U 22045AB  22324.17208531  .00002602  00000-0  18149-3 0  9990,2 52356  53.2186 210.9042 0002507  36.1808 323.9353 15.08851798 33798,6917.844,95.437,541.444,537.975,0.0
52356.0,STARLINK-3801,PAYLOAD,2022-11-20 20:01:40,15.08836705,0.0002491,53.2185,207.9306,36.1454,323.9706,0.00022769,3.337e-05,0.0,0 STARLINK-3801,1 52356U 22045AB  22324.83449081  .00003337  00000-0  22769-3 0  9999,2 52356  53.2185 207.9306 0002491  36.1454 323.9706 15.08836705 33899,6917.89,95.438,541.479,538.0319999999998,0.0
52356.0,STARLINK-3801,PAYLOAD,2022-11-21 02:23:12,15.08831708,0.0002599,53.2186,206.7419,34.0805,326.0354,7.2476e-05,8.65e-06,0.0,0 STARLINK-3801,1 52356U 22045AB  22325.09945521  .00000865  00000-0  72476-4 0  9992,2 52356  53.2186 206.7419 0002599  34.0805 326.0354 15.08831708 33934,6917.906,95.438,541.569,537.9730000000002,0.0
52356.0,STARLINK-3801,PAYLOAD,2022-11-21 19:52:27,15.08835747,0.0002565,53.2187,203.4709,38.51300000000001,321.6044,-2.0437e-05,-6.14e-06,0.0,0 STARLINK-3801,1 52356U 22045AB  22325.82809512 -.00000614  00000-0 -20437-4 0  9996,2 52356  53.2187 203.4709 0002565  38.5130 321.6044 15.08835747 34041,6917.893,95.438,541.533,537.984,0.0
